ONEWEB-0520             
1 54138U 22138AB  26138.18222012 -.00000001  00000+0 -35553-4 0  9992
2 54138  87.9157 310.9468 0001724  83.4691 276.6638 13.19725392172860
ONEWEB-0521             
1 54139U 22138AC  26137.91211621 -.00000024  00000+0 -93018-4 0  9992
2 54139  87.9156 310.9889 0002055  94.8010 265.3357 13.19724971172771
ONEWEB-0522             
1 54140U 22138AD  26138.04322008 -.00000019  00000+0 -79279-4 0  9998
2 54140  87.9158 310.9649 0001807  86.9182 273.2158 13.19725728172830
ONEWEB-0523             
1 54141U 22138AE  26138.10539056 -.00008965  00000+0 -22085-1 0  9997
2 54141  87.9150 280.4386 0002387 117.9916 242.1459 13.20824344175339
ONEWEB-0524             
1 54142U 22138AF  26138.09527721 -.00001820  00000+0 -45093-2 0  9990
2 54142  87.9166 280.4389 0001454 122.0007 238.1268 13.20781420175332
ONEWEB-0525             
1 54143U 22138AG  26137.91053816 -.00000025  00000+0 -95060-4 0  9997
2 54143  87.9153 311.0000 0001754  83.6310 276.5022 13.19727304172837
ONEWEB-0526             
1 54144U 22138AH  26138.17116023  .00000008  00000+0 -13347-4 0  9995
2 54144  87.9156 310.9482 0001691  89.8886 270.2440 13.19722260172841
ONEWEB-0529             
1 54145U 22138AJ  26138.17431507 -.00000037  00000+0 -12509-3 0  9994
2 54145  87.9147 310.9589 0001714  85.2643 274.8685 13.19725982172864
ONEWEB-0531             
1 54146U 22138AK  26138.15758442  .00004328  00000+0  10612-1 0  9999
2 54146  87.9165 280.4243 0002044 123.4006 236.7323 13.20744040175348
ONEWEB-0535             
1 54147U 22138AL  26137.90422416  .00000024  00000+0  27393-4 0  9997
2 54147  87.9156 310.9948 0002010 100.8815 259.2544 13.19725761172844
ONEWEB-0536             
1 54148U 22138AM  26138.14410240 -.00002558  00000+0 -63237-2 0  9998
2 54148  87.9150 280.4521 0001948 127.9158 232.2151 13.20785797175335
ONEWEB-0527             
1 54642U 22166A   26138.04356852 -.00000020  00000+0 -79467-4 0  9991
2 54642  87.9246 249.9932 0001912 101.4985 258.6364 13.21827132167556
ONEWEB-0528             
1 54643U 22166B   26138.04946544  .00000004  00000+0 -20805-4 0  9998
2 54643  87.9249 249.9965 0001787  94.9743 265.1595 13.21825350167564
ONEWEB-0539             
1 54644U 22166C   26138.01246299 -.00000008  00000+0 -51860-4 0  9996
2 54644  87.9254 249.9740 0002161  97.6837 262.4543 13.21825043167554
ONEWEB-0540             
1 54645U 22166D   26137.56514782  .00000069  00000+0  13593-3 0  9996
2 54645  87.9248 250.0955 0002090  99.9570 260.1799 13.21825357167487
ONEWEB-0542             
1 54646U 22166E   26138.02255394  .00000083  00000+0  16894-3 0  9993
2 54646  87.9257 249.9701 0002249  97.8407 262.2982 13.21824943167551
