[{"OBJECT_NAME":"ONEWEB-0520","OBJECT_ID":"2022-138AB","EPOCH":"2026-05-18T04:22:23.818368","MEAN_MOTION":13.19725392,"ECCENTRICITY":0.0001724,"INCLINATION":87.9157,"RA_OF_ASC_NODE":310.9468,"ARG_OF_PERICENTER":83.4691,"MEAN_ANOMALY":276.6638,"EPHEMERIS_TYPE":0,"CLASSIFICATION_TYPE":"U","NORAD_CAT_ID":54138,"ELEMENT_SET_NO":999,"REV_AT_EPOCH":17286,"BSTAR":-3.5553e-05,"MEAN_MOTION_DOT":-1e-08,"MEAN_MOTION_DDOT":0.0},{"OBJECT_NAME":"ONEWEB-0521","OBJECT_ID":"2022-138AC","EPOCH":"2026-05-17T21:53:26.840544","MEAN_MOTION":13.19724971,"ECCENTRICITY":0.0002055,"INCLINATION":87.9156,"RA_OF_ASC_NODE":310.9889,"ARG_OF_PERICENTER":94.801,"MEAN_ANOMALY":265.3357,"EPHEMERIS_TYPE":0,"CLASSIFICATION_TYPE":"U","NORAD_CAT_ID":54139,"ELEMENT_SET_NO":999,"REV_AT_EPOCH":17277,"BSTAR":-9.301800000000001e-05,"MEAN_MOTION_DOT":-2.4e-07,"MEAN_MOTION_DDOT":0.0},{"OBJECT_NAME":"ONEWEB-0522","OBJECT_ID":"2022-138AD","EPOCH":"2026-05-18T01:02:14.214912","MEAN_MOTION":13.19725728,"ECCENTRICITY":0.0001807,"INCLINATION":87.9158,"RA_OF_ASC_NODE":310.9649,"ARG_OF_PERICENTER":86.9182,"MEAN_ANOMALY":273.2158,"EPHEMERIS_TYPE":0,"CLASSIFICATION_TYPE":"U","NORAD_CAT_ID":54140,"ELEMENT_SET_NO":999,"REV_AT_EPOCH":17283,"BSTAR":-7.9279e-05,"MEAN_MOTION_DOT":-1.9e-07,"MEAN_MOTION_DDOT":0.0},{"OBJECT_NAME":"ONEWEB-0523","OBJECT_ID":"2022-138AE","EPOCH":"2026-05-18T02:31:45.744384","MEAN_MOTION":13.20824344,"ECCENTRICITY":0.0002387,"INCLINATION":87.915,"RA_OF_ASC_NODE":280.4386,"ARG_OF_PERICENTER":117.9916,"MEAN_ANOMALY":242.1459,"EPHEMERIS_TYPE":0,"CLASSIFICATION_TYPE":"U","NORAD_CAT_ID":54141,"ELEMENT_SET_NO":999,"REV_AT_EPOCH":17533,"BSTAR":-0.022085,"MEAN_MOTION_DOT":-8.965e-05,"MEAN_MOTION_DDOT":0.0},{"OBJECT_NAME":"ONEWEB-0524","OBJECT_ID":"2022-138AF","EPOCH":"2026-05-18T02:17:11.950944","MEAN_MOTION":13.2078142,"ECCENTRICITY":0.0001454,"INCLINATION":87.9166,"RA_OF_ASC_NODE":280.4389,"ARG_OF_PERICENTER":122.0007,"MEAN_ANOMALY":238.1268,"EPHEMERIS_TYPE":0,"CLASSIFICATION_TYPE":"U","NORAD_CAT_ID":54142,"ELEMENT_SET_NO":999,"REV_AT_EPOCH":17533,"BSTAR":-0.0045093,"MEAN_MOTION_DOT":-1.82e-05,"MEAN_MOTION_DDOT":0.0},{"OBJECT_NAME":"ONEWEB-0525","OBJECT_ID":"2022-138AG","EPOCH":"2026-05-17T21:51:10.497024","MEAN_MOTION":13.19727304,"ECCENTRICITY":0.0001754,"INCLINATION":87.9153,"RA_OF_ASC_NODE":311.0,"ARG_OF_PERICENTER":83.631,"MEAN_ANOMALY":276.5022,"EPHEMERIS_TYPE":0,"CLASSIFICATION_TYPE":"U","NORAD_CAT_ID":54143,"ELEMENT_SET_NO":999,"REV_AT_EPOCH":17283,"BSTAR":-9.506e-05,"MEAN_MOTION_DOT":-2.5e-07,"MEAN_MOTION_DDOT":0.0},{"OBJECT_NAME":"ONEWEB-0526","OBJECT_ID":"2022-138AH","EPOCH":"2026-05-18T04:06:28.243872","MEAN_MOTION":13.1972226,"ECCENTRICITY":0.0001691,"INCLINATION":87.9156,"RA_OF_ASC_NODE":310.9482,"ARG_OF_PERICENTER":89.8886,"MEAN_ANOMALY":270.244,"EPHEMERIS_TYPE":0,"CLASSIFICATION_TYPE":"U","NORAD_CAT_ID":54144,"ELEMENT_SET_NO":999,"REV_AT_EPOCH":17284,"BSTAR":-1.3347000000000001e-05,"MEAN_MOTION_DOT":8e-08,"MEAN_MOTION_DDOT":0.0},{"OBJECT_NAME":"ONEWEB-0529","OBJECT_ID":"2022-138AJ","EPOCH":"2026-05-18T04:11:00.822048","MEAN_MOTION":13.19725982,"ECCENTRICITY":0.0001714,"INCLINATION":87.9147,"RA_OF_ASC_NODE":310.9589,"ARG_OF_PERICENTER":85.2643,"MEAN_ANOMALY":274.8685,"EPHEMERIS_TYPE":0,"CLASSIFICATION_TYPE":"U","NORAD_CAT_ID":54145,"ELEMENT_SET_NO":999,"REV_AT_EPOCH":17286,"BSTAR":-0.00012509,"MEAN_MOTION_DOT":-3.7e-07,"MEAN_MOTION_DDOT":0.0},{"OBJECT_NAME":"ONEWEB-0531","OBJECT_ID":"2022-138AK","EPOCH":"2026-05-18T03:46:55.293888","MEAN_MOTION":13.2074404,"ECCENTRICITY":0.0002044,"INCLINATION":87.9165,"RA_OF_ASC_NODE":280.4243,"ARG_OF_PERICENTER":123.4006,"MEAN_ANOMALY":236.7323,"EPHEMERIS_TYPE":0,"CLASSIFICATION_TYPE":"U","NORAD_CAT_ID":54146,"ELEMENT_SET_NO":999,"REV_AT_EPOCH":17534,"BSTAR":0.010612000000000002,"MEAN_MOTION_DOT":4.328e-05,"MEAN_MOTION_DDOT":0.0},{"OBJECT_NAME":"ONEWEB-0535","OBJECT_ID":"2022-138AL","EPOCH":"2026-05-17T21:42:04.967424","MEAN_MOTION":13.19725761,"ECCENTRICITY":0.000201,"INCLINATION":87.9156,"RA_OF_ASC_NODE":310.9948,"ARG_OF_PERICENTER":100.8815,"MEAN_ANOMALY":259.2544,"EPHEMERIS_TYPE":0,"CLASSIFICATION_TYPE":"U","NORAD_CAT_ID":54147,"ELEMENT_SET_NO":999,"REV_AT_EPOCH":17284,"BSTAR":2.7393000000000004e-05,"MEAN_MOTION_DOT":2.4e-07,"MEAN_MOTION_DDOT":0.0},{"OBJECT_NAME":"ONEWEB-0536","OBJECT_ID":"2022-138AM","EPOCH":"2026-05-18T03:27:30.447360","MEAN_MOTION":13.20785797,"ECCENTRICITY":0.0001948,"INCLINATION":87.915,"RA_OF_ASC_NODE":280.4521,"ARG_OF_PERICENTER":127.9158,"MEAN_ANOMALY":232.2151,"EPHEMERIS_TYPE":0,"CLASSIFICATION_TYPE":"U","NORAD_CAT_ID":54148,"ELEMENT_SET_NO":999,"REV_AT_EPOCH":17533,"BSTAR":-0.0063237,"MEAN_MOTION_DOT":-2.558e-05,"MEAN_MOTION_DDOT":0.0},{"OBJECT_NAME":"ONEWEB-0527","OBJECT_ID":"2022-166A","EPOCH":"2026-05-18T01:02:44.320128","MEAN_MOTION":13.21827132,"ECCENTRICITY":0.0001912,"INCLINATION":87.9246,"RA_OF_ASC_NODE":249.9932,"ARG_OF_PERICENTER":101.4985,"MEAN_ANOMALY":258.6364,"EPHEMERIS_TYPE":0,"CLASSIFICATION_TYPE":"U","NORAD_CAT_ID":54642,"ELEMENT_SET_NO":999,"REV_AT_EPOCH":16755,"BSTAR":-7.9467e-05,"MEAN_MOTION_DOT":-2e-07,"MEAN_MOTION_DDOT":0.0},{"OBJECT_NAME":"ONEWEB-0528","OBJECT_ID":"2022-166B","EPOCH":"2026-05-18T01:11:13.814016","MEAN_MOTION":13.2182535,"ECCENTRICITY":0.0001787,"INCLINATION":87.9249,"RA_OF_ASC_NODE":249.9965,"ARG_OF_PERICENTER":94.9743,"MEAN_ANOMALY":265.1595,"EPHEMERIS_TYPE":0,"CLASSIFICATION_TYPE":"U","NORAD_CAT_ID":54643,"ELEMENT_SET_NO":999,"REV_AT_EPOCH":16756,"BSTAR":-2.0805e-05,"MEAN_MOTION_DOT":4e-08,"MEAN_MOTION_DDOT":0.0},{"OBJECT_NAME":"ONEWEB-0539","OBJECT_ID":"2022-166C","EPOCH":"2026-05-18T00:17:56.802336","MEAN_MOTION":13.21825043,"ECCENTRICITY":0.0002161,"INCLINATION":87.9254,"RA_OF_ASC_NODE":249.974,"ARG_OF_PERICENTER":97.6837,"MEAN_ANOMALY":262.4543,"EPHEMERIS_TYPE":0,"CLASSIFICATION_TYPE":"U","NORAD_CAT_ID":54644,"ELEMENT_SET_NO":999,"REV_AT_EPOCH":16755,"BSTAR":-5.1859999999999995e-05,"MEAN_MOTION_DOT":-8e-08,"MEAN_MOTION_DDOT":0.0},{"OBJECT_NAME":"ONEWEB-0540","OBJECT_ID":"2022-166D","EPOCH":"2026-05-17T13:33:48.771648","MEAN_MOTION":13.21825357,"ECCENTRICITY":0.000209,"INCLINATION":87.9248,"RA_OF_ASC_NODE":250.0955,"ARG_OF_PERICENTER":99.957,"MEAN_ANOMALY":260.1799,"EPHEMERIS_TYPE":0,"CLASSIFICATION_TYPE":"U","NORAD_CAT_ID":54645,"ELEMENT_SET_NO":999,"REV_AT_EPOCH":16748,"BSTAR":0.00013593,"MEAN_MOTION_DOT":6.9e-07,"MEAN_MOTION_DDOT":0.0},{"OBJECT_NAME":"ONEWEB-0542","OBJECT_ID":"2022-166E","EPOCH":"2026-05-18T00:32:28.660416","MEAN_MOTION":13.21824943,"ECCENTRICITY":0.0002249,"INCLINATION":87.9257,"RA_OF_ASC_NODE":249.9701,"ARG_OF_PERICENTER":97.8407,"MEAN_ANOMALY":262.2982,"EPHEMERIS_TYPE":0,"CLASSIFICATION_TYPE":"U","NORAD_CAT_ID":54646,"ELEMENT_SET_NO":999,"REV_AT_EPOCH":16755,"BSTAR":0.00016894000000000002,"MEAN_MOTION_DOT":8.3e-07,"MEAN_MOTION_DDOT":0.0}]